{
  "type": "FeatureCollection",
  "features": [
    {
      "type": "Feature",
      "properties": {
        "norad_id": 66611,
        "name": "STARLINK-35583",
        "group": "last-30-days",
        "lat": -25.260147657595514,
        "lon": 166.83999210877704,
        "alt_km": 416.80724926157563,
        "timestamp": "2025-12-11T22:43:46.024317+00:00",
        "meta_object_name": "STARLINK-35583",
        "meta_object_id": "2025-270Z",
        "meta_epoch": "2025-12-11T14:00:01.999872",
        "meta_mean_motion": 15.5059709,
        "meta_eccentricity": 0.0002107,
        "meta_inclination": 42.9998,
        "meta_ra_of_asc_node": 199.3895,
        "meta_arg_of_pericenter": 260.8767,
        "meta_mean_anomaly": 187.7845,
        "meta_ephemeris_type": 0,
        "meta_classification_type": "U",
        "meta_norad_cat_id": 66611,
        "meta_element_set_no": 999,
        "meta_rev_at_epoch": 432,
        "meta_bstar": -0.0016707496,
        "meta_mean_motion_dot": -0.00097218,
        "meta_mean_motion_ddot": 0,
        "tle_line1": "1 66611U 25270Z   25345.58335648 -.00097218  00000+0 -16707-2 0  9998",
        "tle_line2": "2 66611  42.9998 199.3895 0002107 260.8767 187.7845 15.50597090  4323"
      },
      "geometry": {
        "type": "Point",
        "coordinates": [
          166.83999210877704,
          -25.260147657595514
        ]
      }
    },
    {
      "type": "Feature",
      "properties": {
        "norad_id": 66612,
        "name": "STARLINK-36039",
        "group": "last-30-days",
        "lat": -24.47947661661185,
        "lon": 168.00883366544312,
        "alt_km": 420.1327619056665,
        "timestamp": "2025-12-11T22:43:46.024327+00:00",
        "meta_object_name": "STARLINK-36039",
        "meta_object_id": "2025-270AA",
        "meta_epoch": "2025-12-11T14:00:01.999872",
        "meta_mean_motion": 15.50908783,
        "meta_eccentricity": 0.00018398,
        "meta_inclination": 42.9996,
        "meta_ra_of_asc_node": 199.3838,
        "meta_arg_of_pericenter": 267.5205,
        "meta_mean_anomaly": 183.0167,
        "meta_ephemeris_type": 0,
        "meta_classification_type": "U",
        "meta_norad_cat_id": 66612,
        "meta_element_set_no": 999,
        "meta_rev_at_epoch": 421,
        "meta_bstar": -0.036416783,
        "meta_mean_motion_dot": -0.01938578,
        "meta_mean_motion_ddot": 0,
        "tle_line1": "1 66612U 25270AA  25345.58335648 -.01938578  00000+0 -36417-1 0  9992",
        "tle_line2": "2 66612  42.9996 199.3838 0001839 267.5205 183.0167 15.50908783  4210"
      },
      "geometry": {
        "type": "Point",
        "coordinates": [
          168.00883366544312,
          -24.47947661661185
        ]
      }
    },
    {
      "type": "Feature",
      "properties": {
        "norad_id": 66613,
        "name": "STARLINK-36037",
        "group": "last-30-days",
        "lat": -22.962789479843106,
        "lon": 170.20520929084267,
        "alt_km": 416.6684159011038,
        "timestamp": "2025-12-11T22:43:46.024337+00:00",
        "meta_object_name": "STARLINK-36037",
        "meta_object_id": "2025-270AB",
        "meta_epoch": "2025-12-11T14:00:01.999872",
        "meta_mean_motion": 15.50628588,
        "meta_eccentricity": 0.0001985,
        "meta_inclination": 42.9996,
        "meta_ra_of_asc_node": 199.379,
        "meta_arg_of_pericenter": 261.927,
        "meta_mean_anomaly": 190.5464,
        "meta_ephemeris_type": 0,
        "meta_classification_type": "U",
        "meta_norad_cat_id": 66613,
        "meta_element_set_no": 999,
        "meta_rev_at_epoch": 421,
        "meta_bstar": -0.0019024407,
        "meta_mean_motion_dot": -0.00110588,
        "meta_mean_motion_ddot": 0,
        "tle_line1": "1 66613U 25270AB  25345.58335648 -.00110588  00000+0 -19024-2 0  9991",
        "tle_line2": "2 66613  42.9996 199.3790 0001985 261.9270 190.5464 15.50628588  4215"
      },
      "geometry": {
        "type": "Point",
        "coordinates": [
          170.20520929084267,
          -22.962789479843106
        ]
      }
    },
    {
      "type": "Feature",
      "properties": {
        "norad_id": 66614,
        "name": "STARLINK-36040",
        "group": "last-30-days",
        "lat": -20.60279501255758,
        "lon": 173.44952623279832,
        "alt_km": 416.67984600639465,
        "timestamp": "2025-12-11T22:43:46.024347+00:00",
        "meta_object_name": "STARLINK-36040",
        "meta_object_id": "2025-270AC",
        "meta_epoch": "2025-12-11T14:00:01.999872",
        "meta_mean_motion": 15.50616948,
        "meta_eccentricity": 0.00018782,
        "meta_inclination": 42.9997,
        "meta_ra_of_asc_node": 199.3701,
        "meta_arg_of_pericenter": 265.0045,
        "meta_mean_anomaly": 191.3482,
        "meta_ephemeris_type": 0,
        "meta_classification_type": "U",
        "meta_norad_cat_id": 66614,
        "meta_element_set_no": 999,
        "meta_rev_at_epoch": 405,
        "meta_bstar": -0.0028744458,
        "meta_mean_motion_dot": -0.00165686,
        "meta_mean_motion_ddot": 0,
        "tle_line1": "1 66614U 25270AC  25345.58335648 -.00165686  00000+0 -28744-2 0  9990",
        "tle_line2": "2 66614  42.9997 199.3701 0001878 265.0045 191.3482 15.50616948  4053"
      },
      "geometry": {
        "type": "Point",
        "coordinates": [
          173.44952623279832,
          -20.60279501255758
        ]
      }
    },
    {
      "type": "Feature",
      "properties": {
        "norad_id": 66615,
        "name": "STARLINK-35988",
        "group": "last-30-days",
        "lat": -21.776843604525222,
        "lon": 171.85999482860325,
        "alt_km": 417.0995862519585,
        "timestamp": "2025-12-11T22:43:46.024357+00:00",
        "meta_object_name": "STARLINK-35988",
        "meta_object_id": "2025-270AD",
        "meta_epoch": "2025-12-11T14:00:01.999872",
        "meta_mean_motion": 15.50794523,
        "meta_eccentricity": 0.00017758,
        "meta_inclination": 42.9997,
        "meta_ra_of_asc_node": 199.3748,
        "meta_arg_of_pericenter": 249.7036,
        "meta_mean_anomaly": 204.6377,
        "meta_ephemeris_type": 0,
        "meta_classification_type": "U",
        "meta_norad_cat_id": 66615,
        "meta_element_set_no": 999,
        "meta_rev_at_epoch": 405,
        "meta_bstar": -0.0070813017,
        "meta_mean_motion_dot": -0.00398403,
        "meta_mean_motion_ddot": 0,
        "tle_line1": "1 66615U 25270AD  25345.58335648 -.00398403  00000+0 -70813-2 0  9990",
        "tle_line2": "2 66615  42.9997 199.3748 0001775 249.7036 204.6377 15.50794523  4057"
      },
      "geometry": {
        "type": "Point",
        "coordinates": [
          171.85999482860325,
          -21.776843604525222
        ]
      }
    },
    {
      "type": "Feature",
      "properties": {
        "norad_id": 66616,
        "name": "STARLINK-35391",
        "group": "last-30-days",
        "lat": -19.398094946814293,
        "lon": 175.03554130693956,
        "alt_km": 416.63864660254603,
        "timestamp": "2025-12-11T22:43:46.024370+00:00",
        "meta_object_name": "STARLINK-35391",
        "meta_object_id": "2025-270AE",
        "meta_epoch": "2025-12-11T14:00:01.999872",
        "meta_mean_motion": 15.50624312,
        "meta_eccentricity": 0.00019205,
        "meta_inclination": 42.9998,
        "meta_ra_of_asc_node": 199.3654,
        "meta_arg_of_pericenter": 263.6495,
        "meta_mean_anomaly": 194.6204,
        "meta_ephemeris_type": 0,
        "meta_classification_type": "U",
        "meta_norad_cat_id": 66616,
        "meta_element_set_no": 999,
        "meta_rev_at_epoch": 432,
        "meta_bstar": -0.0031161753,
        "meta_mean_motion_dot": -0.00179329,
        "meta_mean_motion_ddot": 0,
        "tle_line1": "1 66616U 25270AE  25345.58335648 -.00179329  00000+0 -31162-2 0  9999",
        "tle_line2": "2 66616  42.9998 199.3654 0001920 263.6495 194.6204 15.50624312  4326"
      },
      "geometry": {
        "type": "Point",
        "coordinates": [
          175.03554130693956,
          -19.398094946814293
        ]
      }
    },
    {
      "type": "Feature",
      "properties": {
        "norad_id": 66617,
        "name": "STARLINK-35940",
        "group": "last-30-days",
        "lat": -17.17784626089108,
        "lon": 177.6333077292292,
        "alt_km": 410.31041718121014,
        "timestamp": "2025-12-11T22:43:46.024382+00:00",
        "meta_object_name": "STARLINK-35940",
        "meta_object_id": "2025-271A",
        "meta_epoch": "2025-12-11T14:00:01.999872",
        "meta_mean_motion": 15.54900031,
        "meta_eccentricity": 0.00010186,
        "meta_inclination": 53.1605,
        "meta_ra_of_asc_node": 192.7858,
        "meta_arg_of_pericenter": 90.2466,
        "meta_mean_anomaly": 12.2107,
        "meta_ephemeris_type": 0,
        "meta_classification_type": "U",
        "meta_norad_cat_id": 66617,
        "meta_element_set_no": 999,
        "meta_rev_at_epoch": 405,
        "meta_bstar": -0.033364535,
        "meta_mean_motion_dot": -0.02027007,
        "meta_mean_motion_ddot": 0,
        "tle_line1": "1 66617U 25271A   25345.58335648 -.02027007  00000+0 -33365-1 0  9994",
        "tle_line2": "2 66617  53.1605 192.7858 0001018  90.2466  12.2107 15.54900031  4055"
      },
      "geometry": {
        "type": "Point",
        "coordinates": [
          177.6333077292292,
          -17.17784626089108
        ]
      }
    }
  ]
}